#aV2019  3 29  0  0  0.00000000     288 DD+AD WGS84 FIT  NGA
## 2046 432000.00000000   300.00000000 58571 0.0000000000000
+   31     1  2  3  5  6  7  8  9 10 11 12 13 14 15 16 17 18
+         19 20 21 22 23 24 25 26 27 28 29 30 31 32  0  0  0
+          0  0  0  0  0  0  0  0  0  0  0  0  0  0  0  0  0
+          0  0  0  0  0  0  0  0  0  0  0  0  0  0  0  0  0
+          0  0  0  0  0  0  0  0  0  0  0  0  0  0  0  0  0
++         2  2  2  2  2  2  2  2  2  2  2  2  2  2  2  2  2
++         2  2  2  2  2  2  2  2  2  2  2  2  2  2  0  0  0
++         0  0  0  0  0  0  0  0  0  0  0  0  0  0  0  0  0
++         0  0  0  0  0  0  0  0  0  0  0  0  0  0  0  0  0
++         0  0  0  0  0  0  0  0  0  0  0  0  0  0  0  0  0
%c cc cc ccc ccc cccc cccc cccc cccc ccccc ccccc ccccc ccccc
%c cc cc ccc ccc cccc cccc cccc cccc ccccc ccccc ccccc ccccc
%f  0.0000000  0.000000000  0.00000000000  0.000000000000000
%f  0.0000000  0.000000000  0.00000000000  0.000000000000000
%i    0    0    0    0      0      0      0      0         0
%i    0    0    0    0      0      0      0      0         0
/*      NGA, ST. LOUIS,MO.                                  
/*   EPHEMERIS COMPUTED FROM 2 DAYS OF DATA                 
/*   EPOCHA v3 SMOOTHER                                     
/*   G1762 IERS2010 SATAF SATAPC                            
*  2019  3 29 21 45  0.00000000
P  1  13430.861658 -17733.448620  14090.901368   -190.815308                    
V  1  -1660.577516  18334.754568  24666.223362     -0.078257                    
P  2 -14330.483097  -5544.618832 -21075.535732   -176.001060                    
V  2   4215.440680 -27889.933178   4184.299716     -0.095266                    
P  3  22135.496873 -12723.494992  -7201.595516    187.528929                    
V  3   9493.480998   -372.409375  30056.164867      0.007061                    
P  5 -24284.750765    403.392902 -11103.052692      1.172956                    
V  5  12158.165470  -7151.775473 -26937.911125     -0.000101                    
P  6  -8600.795733 -17916.413661 -17555.379465    243.491049                    
V  6   5787.936191 -21653.715953  19241.809133     -0.091068                    
P  7   6542.338537 -25420.792767  -1422.413969      5.349728                    
V  7   2865.570387   2802.909314 -31882.393922     -0.073922                    
P  8  19363.508318     84.041902  18310.054005   -137.978863                    
V  8  16694.277363  15968.966943 -17568.321740     -0.013705                    
P  9     37.831425 -18149.347617 -19432.179610    437.429038                    
V  9  19574.830808  14976.981651 -13992.221101     -0.061224                    
P 10   6563.161541  13796.179477  21794.705316     85.721592                    
V 10 -26024.943539   8932.589924   1997.367038     -0.090946                    
P 11  11826.570274 -13714.923976  18967.763972   -636.239696                    
V 11   7807.405040  24192.016099  12044.002091      0.068897                    
P 12 -23339.717463  10708.016870  -6611.014118    255.860370                    
V 12  -8408.975386     29.979123  30889.571266     -0.033037                    
P 13 -20763.690975  -9188.500708  13698.190751    -69.849680                    
V 13 -10151.768671 -14464.092033 -24842.923925      0.014624                    
P 14  18363.041894  19328.719957    403.497211    -86.504120                    
V 14  -2003.298671   1753.616640  31633.651386      0.014452                    
P 15 -18827.785291   3260.000099  18339.666377   -321.082462                    
V 15 -18196.557414 -15444.539839 -15323.863078      0.019188                    
P 16  24990.427519    611.958942  -9785.700502    -28.892569                    
V 16 -11298.998112   4291.318270 -28705.904716     -0.027324                    
P 17 -13022.824275 -21422.276482   9312.730638     30.991162                    
V 17   9200.855337   6601.285254  29252.220509      0.059115                    
P 18  15257.914424  -8668.644447  19413.928393     39.354133                    
V 18  -2416.730939  25702.021357  13188.924264      0.033973                    
P 19 -18049.653882 -19411.375749     10.223942   -336.686630                    
V 19   1884.283433  -1244.228907  32281.661939      0.043406                    
P 20  -3487.100561  17657.231805  19383.557514    523.531026                    
V 20 -23275.614969   9254.073905 -12692.509374      0.003425                    
P 21  -1394.514402  26480.178299   3265.781157   -222.810959                    
V 21  -3453.437375   2709.156136 -31019.825474      0.074979                    
P 22  24788.191863  -9395.732758   1151.239900   -673.877315                    
V 22    410.334190   4086.047369  30981.376789     -0.072862                    
P 23  11631.506309 -10310.254381 -21234.712908   -192.207739                    
V 23  21106.842670  18043.286531   2355.218611      0.014105                    
P 24 -14479.606730  14405.144131  16649.224412    -64.076765                    
V 24    794.297665 -21751.445234  19656.680639     -0.005060                    
P 25 -13934.639328  16110.148805 -15907.176524   -739.346843                    
V 25 -19459.757446   4552.000917  22195.544844     -0.047017                    
P 26  18669.426087   6672.252563 -17774.948365    162.295303                    
V 26 -20570.909252   9255.925787 -17973.657154      0.100069                    
P 27  22310.793242  10161.122426  10492.908878    -96.785047                    
V 27   8865.636646  10128.848303 -28103.347803     -0.083103                    
P 28  -4109.976235 -14450.502199  22511.679908    766.961750                    
V 28  26288.861758  -6378.413448    815.788437      0.004514                    
P 29  -5694.980098  14496.759213 -21543.057477    237.840809                    
V 29 -19562.659954 -18926.476353  -7573.882342     -0.089183                    
P 30   -998.662729 -24700.930122   9478.072792    -77.177669                    
V 30   6040.666182 -10975.166690 -28192.823109     -0.067340                    
P 31   9308.476744  16618.910193 -18317.114677     48.697083                    
V 31  -7008.143235  22426.437033  17220.608285     -0.026409                    
P 32  16336.403753  20062.577850   6318.035289   -157.283358                    
V 32  -7770.686369  -3156.789530  30236.735968      0.181444                    
EOF
